[Satellite]
VERSION=1.1
NAME=SL-8 R/B
NICKNAME=SL-8 R/B
TLE1=1 21088U 91006B   20157.91655889  .00000058  00000-0  42780-4 0  9999
TLE2=2 21088  82.9416 293.7902 0023093 160.4425 315.5474 13.77148699474629
STATUS=0
